*******************************************************************************
Ephemeris / PORT_LOGIN Sun Apr 13 02:35:32 2014 Pasadena, USA    / Horizons
*******************************************************************************
Target body name: 1916 Boreas (1953 RA)           {source: JPL#130}
Center body name: Earth (399)                     {source: DE-0431LE-0431}
Center-site name: GEOCENTRIC
*******************************************************************************
Start time      : A.D. 2014-Apr-13 00:00:00.0000 UT
Stop  time      : A.D. 2014-Apr-15 00:00:00.0000 UT
Step-size       : 1 minutes
*******************************************************************************
Target pole/equ : No model available
Target radii    : 1.8 km
Center geodetic : 0.00000000,0.00000000,0.0000000 {E-lon(deg),Lat(deg),Alt(km)}
Center cylindric: 0.00000000,0.00000000,0.0000000 {E-lon(deg),Dxy(km),Dz(km)}
Center pole/equ : High-precision EOP model        {East-longitude +}
Center radii    : 6378.1 x 6378.1 x 6356.8 km     {Equator, meridian, pole}
Target primary  : Sun
Vis. interferer : MOON (R_eq= 1737.400) km        {source: DE-0431LE-0431}
Rel. light bend : Sun, EARTH                      {source: DE-0431LE-0431}
Rel. lght bnd GM: 1.3271E+11, 3.9860E+05 km^3/s^2
Small-body perts: Yes                             {source: SB431-BIG16}
Atmos refraction: NO (AIRLESS)
RA format       : DEG
Time format     : BOTH
EOP file        : eop.140411.p140703
EOP coverage    : DATA-BASED 1962-JAN-20 TO 2014-APR-11. PREDICTS-> 2014-JUL-02
Units conversion: 1 au= 149597870.700 km, c= 299792.458 km/s, 1 day= 86400.0 s
Table cut-offs 1: Elevation (-90.0deg=NO ),Airmass (>38.000=NO), Daylight (NO )
Table cut-offs 2: Solar Elongation (  0.0,180.0=NO ),Local Hour Angle( 0.0=NO )
Table format    : Comma Separated Values (spreadsheet)
*******************************************************************************
Initial FK5/J2000.0 heliocentric ecliptic osculating elements (au, days, deg.):
  EPOCH=  2453968.5 ! 2006-Aug-21.00 (CT)          Residual RMS= .37623
   EC= .4490072914095446   QR= 1.252426634845782   TP= 2453369.6883531483
   OM= 340.7555554690096   W=  335.8084891137696   IN= 12.87460136888289
Asteroid physical parameters (km, seconds, rotational period in hours):
   GM= n.a.                RAD= 1.75               ROTPER= 3.49
   H= 14.93                G= .150                 B-V= .852
                           ALBEDO= n.a.            STYP= S
*************************************************************************************************
 Date__(UT)__HR:MN:SS, Date_________JDUT, , ,R.A._(ICRF/J2000.0), DEC_(ICRF/J2000.0),   1-way_LT,
*************************************************************************************************
$$SOE
 2014-Apr-14 23:18:00, 2456762.470833333, , ,156.8651223,  6.0271790,  17.448637,
 2014-Apr-14 23:19:00, 2456762.471527778, , ,156.8650275,  6.0271918,  17.448680,
 2014-Apr-14 23:20:00, 2456762.472222222, , ,156.8649327,  6.0272047,  17.448722,
 2014-Apr-14 23:21:00, 2456762.472916667, , ,156.8648379,  6.0272175,  17.448765,
 2014-Apr-14 23:22:00, 2456762.473611111, , ,156.8647431,  6.0272303,  17.448807,
 2014-Apr-14 23:23:00, 2456762.474305556, , ,156.8646483,  6.0272431,  17.448850,
 2014-Apr-14 23:24:00, 2456762.475000000, , ,156.8645535,  6.0272560,  17.448892,
 2014-Apr-14 23:25:00, 2456762.475694444, , ,156.8644587,  6.0272688,  17.448935,
 2014-Apr-14 23:26:00, 2456762.476388889, , ,156.8643639,  6.0272816,  17.448977,
 2014-Apr-14 23:27:00, 2456762.477083333, , ,156.8642691,  6.0272944,  17.449020,
 2014-Apr-14 23:28:00, 2456762.477777778, , ,156.8641743,  6.0273073,  17.449062,
 2014-Apr-14 23:29:00, 2456762.478472222, , ,156.8640796,  6.0273201,  17.449105,
 2014-Apr-14 23:30:00, 2456762.479166667, , ,156.8639848,  6.0273329,  17.449147,
 2014-Apr-14 23:31:00, 2456762.479861111, , ,156.8638900,  6.0273457,  17.449190,
 2014-Apr-14 23:32:00, 2456762.480555556, , ,156.8637952,  6.0273585,  17.449232,
 2014-Apr-14 23:33:00, 2456762.481250000, , ,156.8637005,  6.0273714,  17.449275,
 2014-Apr-14 23:34:00, 2456762.481944445, , ,156.8636057,  6.0273842,  17.449317,
 2014-Apr-14 23:35:00, 2456762.482638889, , ,156.8635109,  6.0273970,  17.449360,
 2014-Apr-14 23:36:00, 2456762.483333333, , ,156.8634162,  6.0274098,  17.449402,
 2014-Apr-14 23:37:00, 2456762.484027778, , ,156.8633214,  6.0274226,  17.449445,
 2014-Apr-14 23:38:00, 2456762.484722222, , ,156.8632267,  6.0274354,  17.449488,
 2014-Apr-14 23:39:00, 2456762.485416667, , ,156.8631319,  6.0274482,  17.449530,
 2014-Apr-14 23:40:00, 2456762.486111111, , ,156.8630372,  6.0274610,  17.449573,
 2014-Apr-14 23:41:00, 2456762.486805555, , ,156.8629424,  6.0274739,  17.449615,
 2014-Apr-14 23:42:00, 2456762.487500000, , ,156.8628477,  6.0274867,  17.449658,
 2014-Apr-14 23:43:00, 2456762.488194444, , ,156.8627530,  6.0274995,  17.449700,
 2014-Apr-14 23:44:00, 2456762.488888889, , ,156.8626582,  6.0275123,  17.449743,
 2014-Apr-14 23:45:00, 2456762.489583333, , ,156.8625635,  6.0275251,  17.449785,
 2014-Apr-14 23:46:00, 2456762.490277778, , ,156.8624688,  6.0275379,  17.449828,
 2014-Apr-14 23:47:00, 2456762.490972222, , ,156.8623740,  6.0275507,  17.449870,
 2014-Apr-14 23:48:00, 2456762.491666667, , ,156.8622793,  6.0275635,  17.449913,
 2014-Apr-14 23:49:00, 2456762.492361111, , ,156.8621846,  6.0275763,  17.449955,
 2014-Apr-14 23:50:00, 2456762.493055556, , ,156.8620899,  6.0275891,  17.449998,
 2014-Apr-14 23:51:00, 2456762.493750000, , ,156.8619952,  6.0276019,  17.450040,
 2014-Apr-14 23:52:00, 2456762.494444444, , ,156.8619005,  6.0276147,  17.450083,
 2014-Apr-14 23:53:00, 2456762.495138889, , ,156.8618058,  6.0276275,  17.450125,
 2014-Apr-14 23:54:00, 2456762.495833333, , ,156.8617111,  6.0276403,  17.450168,
 2014-Apr-14 23:55:00, 2456762.496527778, , ,156.8616164,  6.0276531,  17.450210,
 2014-Apr-14 23:56:00, 2456762.497222222, , ,156.8615217,  6.0276659,  17.450253,
 2014-Apr-14 23:57:00, 2456762.497916667, , ,156.8614270,  6.0276787,  17.450296,
 2014-Apr-14 23:58:00, 2456762.498611111, , ,156.8613323,  6.0276915,  17.450338,
 2014-Apr-14 23:59:00, 2456762.499305556, , ,156.8612376,  6.0277043,  17.450381,
 2014-Apr-15 00:00:00, 2456762.500000000, , ,156.8611429,  6.0277170,  17.450423,
$$EOE
*************************************************************************************************